1 12967U 00000A   26090.39630705  .00000000  00000-0 0.0000000 0  9994
2 12967  53.0000 308.5714 0001000   0.0000 261.0000 15.13676342    12
1 12968U 00000A   26090.39630705  .00000000  00000-0 0.0000000 0  9995
2 12968  53.0000 308.5714 0001000   0.0000 264.0000 15.13676342    16
1 12969U 00000A   26090.39630705  .00000000  00000-0 0.0000000 0  9996
2 12969  53.0000 308.5714 0001000   0.0000 267.0000 15.13676342    10
1 12970U 00000A   26090.39630705  .00000000  00000-0 0.0000000 0  9998
2 12970  53.0000 308.5714 0001000   0.0000 270.0000 15.13676342    16
1 12971U 00000A   26090.39630705  .00000000  00000-0 0.0000000 0  9999
2 12971  53.0000 308.5714 0001000   0.0000 273.0000 15.13676342    10
1 12972U 00000A   26090.39630705  .00000000  00000-0 0.0000000 0  9990
2 12972  53.0000 308.5714 0001000   0.0000 276.0000 15.13676342    14
1 12973U 00000A   26090.39630705  .00000000  00000-0 0.0000000 0  9991
2 12973  53.0000 308.5714 0001000   0.0000 279.0000 15.13676342    18
1 12974U 00000A   26090.39630705  .00000000  00000-0 0.0000000 0  9992
2 12974  53.0000 308.5714 0001000   0.0000 282.0000 15.13676342    13
1 12975U 00000A   26090.39630705  .00000000  00000-0 0.0000000 0  9993
2 12975  53.0000 308.5714 0001000   0.0000 285.0000 15.13676342    17
1 12976U 00000A   26090.39630705  .00000000  00000-0 0.0000000 0  9994
2 12976  53.0000 308.5714 0001000   0.0000 288.0000 15.13676342    11
1 12977U 00000A   26090.39630705  .00000000  00000-0 0.0000000 0  9995
2 12977  53.0000 308.5714 0001000   0.0000 291.0000 15.13676342    16
1 12978U 00000A   26090.39630705  .00000000  00000-0 0.0000000 0  9996
2 12978  53.0000 308.5714 0001000   0.0000 294.0000 15.13676342    10
1 12979U 00000A   26090.39630705  .00000000  00000-0 0.0000000 0  9997
2 12979  53.0000 308.5714 0001000   0.0000 297.0000 15.13676342    14
1 12980U 00000A   26090.39630705  .00000000  00000-0 0.0000000 0  9999
2 12980  53.0000 308.5714 0001000   0.0000 300.0000 15.13676342    11
1 12981U 00000A   26090.39630705  .00000000  00000-0 0.0000000 0  9990
2 12981  53.0000 308.5714 0001000   0.0000 303.0000 15.13676342    15
1 12982U 00000A   26090.39630705  .00000000  00000-0 0.0000000 0  9991
2 12982  53.0000 308.5714 0001000   0.0000 306.0000 15.13676342    19
1 12983U 00000A   26090.39630705  .00000000  00000-0 0.0000000 0  9992
2 12983  53.0000 308.5714 0001000   0.0000 309.0000 15.13676342    13
1 12984U 00000A   26090.39630705  .00000000  00000-0 0.0000000 0  9993
2 12984  53.0000 308.5714 0001000   0.0000 312.0000 15.13676342    18
1 12985U 00000A   26090.39630705  .00000000  00000-0 0.0000000 0  9994
2 12985  53.0000 308.5714 0001000   0.0000 315.0000 15.13676342    12
1 12986U 00000A   26090.39630705  .00000000  00000-0 0.0000000 0  9995
2 12986  53.0000 308.5714 0001000   0.0000 318.0000 15.13676342    16
1 12987U 00000A   26090.39630705  .00000000  00000-0 0.0000000 0  9996
2 12987  53.0000 308.5714 0001000   0.0000 321.0000 15.13676342    11
1 12988U 00000A   26090.39630705  .00000000  00000-0 0.0000000 0  9997
2 12988  53.0000 308.5714 0001000   0.0000 324.0000 15.13676342    15
1 12989U 00000A   26090.39630705  .00000000  00000-0 0.0000000 0  9998
2 12989  53.0000 308.5714 0001000   0.0000 327.0000 15.13676342    19
1 12990U 00000A   26090.39630705  .00000000  00000-0 0.0000000 0  9990
2 12990  53.0000 308.5714 0001000   0.0000 330.0000 15.13676342    15
1 12991U 00000A   26090.39630705  .00000000  00000-0 0.0000000 0  9991
2 12991  53.0000 308.5714 0001000   0.0000 333.0000 15.13676342    19
1 12992U 00000A   26090.39630705  .00000000  00000-0 0.0000000 0  9992
2 12992  53.0000 308.5714 0001000   0.0000 336.0000 15.13676342    13
1 12993U 00000A   26090.39630705  .00000000  00000-0 0.0000000 0  9993
2 12993  53.0000 308.5714 0001000   0.0000 339.0000 15.13676342    17
1 12994U 00000A   26090.39630705  .00000000  00000-0 0.0000000 0  9994
2 12994  53.0000 308.5714 0001000   0.0000 342.0000 15.13676342    12
1 12995U 00000A   26090.39630705  .00000000  00000-0 0.0000000 0  9995
2 12995  53.0000 308.5714 0001000   0.0000 345.0000 15.13676342    16
1 12996U 00000A   26090.39630705  .00000000  00000-0 0.0000000 0  9996
2 12996  53.0000 308.5714 0001000   0.0000 348.0000 15.13676342    10
1 12997U 00000A   26090.39630705  .00000000  00000-0 0.0000000 0  9997
2 12997  53.0000 308.5714 0001000   0.0000 351.0000 15.13676342    15
1 12998U 00000A   26090.39630705  .00000000  00000-0 0.0000000 0  9998
2 12998  53.0000 308.5714 0001000   0.0000 354.0000 15.13676342    19
1 12999U 00000A   26090.39630705  .00000000  00000-0 0.0000000 0  9999
2 12999  53.0000 308.5714 0001000   0.0000 357.0000 15.13676342    13
1 13000U 00000A   26090.39630705  .00000000  00000-0 0.0000000 0  9993
2 13000  53.0000 321.4286 0001000   0.0000   0.0000 15.13676342    10
1 13001U 00000A   26090.39630705  .00000000  00000-0 0.0000000 0  9994
2 13001  53.0000 321.4286 0001000   0.0000   3.0000 15.13676342    14
1 13002U 00000A   26090.39630705  .00000000  00000-0 0.0000000 0  9995
2 13002  53.0000 321.4286 0001000   0.0000   6.0000 15.13676342    18
1 13003U 00000A   26090.39630705  .00000000  00000-0 0.0000000 0  9996
2 13003  53.0000 321.4286 0001000   0.0000   9.0000 15.13676342    12
1 13004U 00000A   26090.39630705  .00000000  00000-0 0.0000000 0  9997
2 13004  53.0000 321.4286 0001000   0.0000  12.0000 15.13676342    17
1 13005U 00000A   26090.39630705  .00000000  00000-0 0.0000000 0  9998
2 13005  53.0000 321.4286 0001000   0.0000  15.0000 15.13676342    11
1 13006U 00000A   26090.39630705  .00000000  00000-0 0.0000000 0  9999
2 13006  53.0000 321.4286 0001000   0.0000  18.0000 15.13676342    15
1 13007U 00000A   26090.39630705  .00000000  00000-0 0.0000000 0  9990
2 13007  53.0000 321.4286 0001000   0.0000  21.0000 15.13676342    10
1 13008U 00000A   26090.39630705  .00000000  00000-0 0.0000000 0  9991
2 13008  53.0000 321.4286 0001000   0.0000  24.0000 15.13676342    14
1 13009U 00000A   26090.39630705  .00000000  00000-0 0.0000000 0  9992
2 13009  53.0000 321.4286 0001000   0.0000  27.0000 15.13676342    18
1 13010U 00000A   26090.39630705  .00000000  00000-0 0.0000000 0  9994
2 13010  53.0000 321.4286 0001000   0.0000  30.0000 15.13676342    14
1 13011U 00000A   26090.39630705  .00000000  00000-0 0.0000000 0  9995
2 13011  53.0000 321.4286 0001000   0.0000  33.0000 15.13676342    18
1 13012U 00000A   26090.39630705  .00000000  00000-0 0.0000000 0  9996
2 13012  53.0000 321.4286 0001000   0.0000  36.0000 15.13676342    12
1 13013U 00000A   26090.39630705  .00000000  00000-0 0.0000000 0  9997
2 13013  53.0000 321.4286 0001000   0.0000  39.0000 15.13676342    16
1 13014U 00000A   26090.39630705  .00000000  00000-0 0.0000000 0  9998
2 13014  53.0000 321.4286 0001000   0.0000  42.0000 15.13676342    11
1 13015U 00000A   26090.39630705  .00000000  00000-0 0.0000000 0  9999
2 13015  53.0000 321.4286 0001000   0.0000  45.0000 15.13676342    15
1 13016U 00000A   26090.39630705  .00000000  00000-0 0.0000000 0  9990
2 13016  53.0000 321.4286 0001000   0.0000  48.0000 15.13676342    19
1 13017U 00000A   26090.39630705  .00000000  00000-0 0.0000000 0  9991
2 13017  53.0000 321.4286 0001000   0.0000  51.0000 15.13676342    14
1 13018U 00000A   26090.39630705  .00000000  00000-0 0.0000000 0  9992
2 13018  53.0000 321.4286 0001000   0.0000  54.0000 15.13676342    18
1 13019U 00000A   26090.39630705  .00000000  00000-0 0.0000000 0  9993
2 13019  53.0000 321.4286 0001000   0.0000  57.0000 15.13676342    12
1 13020U 00000A   26090.39630705  .00000000  00000-0 0.0000000 0  9995
2 13020  53.0000 321.4286 0001000   0.0000  60.0000 15.13676342    18
1 13021U 00000A   26090.39630705  .00000000  00000-0 0.0000000 0  9996
2 13021  53.0000 321.4286 0001000   0.0000  63.0000 15.13676342    12
1 13022U 00000A   26090.39630705  .00000000  00000-0 0.0000000 0  9997
2 13022  53.0000 321.4286 0001000   0.0000  66.0000 15.13676342    16
1 13023U 00000A   26090.39630705  .00000000  00000-0 0.0000000 0  9998
2 13023  53.0000 321.4286 0001000   0.0000  69.0000 15.13676342    10
1 13024U 00000A   26090.39630705  .00000000  00000-0 0.0000000 0  9999
2 13024  53.0000 321.4286 0001000   0.0000  72.0000 15.13676342    15
1 13025U 00000A   26090.39630705  .00000000  00000-0 0.0000000 0  9990
2 13025  53.0000 321.4286 0001000   0.0000  75.0000 15.13676342    19
1 13026U 00000A   26090.39630705  .00000000  00000-0 0.0000000 0  9991
2 13026  53.0000 321.4286 0001000   0.0000  78.0000 15.13676342    13
1 13027U 00000A   26090.39630705  .00000000  00000-0 0.0000000 0  9992
2 13027  53.0000 321.4286 0001000   0.0000  81.0000 15.13676342    18
1 13028U 00000A   26090.39630705  .00000000  00000-0 0.0000000 0  9993
2 13028  53.0000 321.4286 0001000   0.0000  84.0000 15.13676342    12
1 13029U 00000A   26090.39630705  .00000000  00000-0 0.0000000 0  9994
2 13029  53.0000 321.4286 0001000   0.0000  87.0000 15.13676342    16
1 13030U 00000A   26090.39630705  .00000000  00000-0 0.0000000 0  9996
2 13030  53.0000 321.4286 0001000   0.0000  90.0000 15.13676342    12
1 13031U 00000A   26090.39630705  .00000000  00000-0 0.0000000 0  9997
2 13031  53.0000 321.4286 0001000   0.0000  93.0000 15.13676342    16
1 13032U 00000A   26090.39630705  .00000000  00000-0 0.0000000 0  9998
2 13032  53.0000 321.4286 0001000   0.0000  96.0000 15.13676342    10
1 13033U 00000A   26090.39630705  .00000000  00000-0 0.0000000 0  9999
2 13033  53.0000 321.4286 0001000   0.0000  99.0000 15.13676342    14
1 13034U 00000A   26090.39630705  .00000000  00000-0 0.0000000 0  9990
2 13034  53.0000 321.4286 0001000   0.0000 102.0000 15.13676342    10
1 13035U 00000A   26090.39630705  .00000000  00000-0 0.0000000 0  9991
2 13035  53.0000 321.4286 0001000   0.0000 105.0000 15.13676342    14
